{
  "type": "FeatureCollection",
  "features": [
    {
      "type": "Feature",
      "properties": {
        "norad_id": 43719,
        "name": "HYSIS",
        "group": "resource",
        "lat": -78.73765540948752,
        "lon": 96.8274770030565,
        "alt_km": 641.5584853453811,
        "timestamp": "2025-12-14T20:40:31.425545+00:00",
        "meta_object_name": "HYSIS",
        "meta_object_id": "2018-096A",
        "meta_epoch": "2025-12-14T08:03:12.311424",
        "meta_mean_motion": 14.78653219,
        "meta_eccentricity": 0.00012585,
        "meta_inclination": 98.0097,
        "meta_ra_of_asc_node": 51.3052,
        "meta_arg_of_pericenter": 56.7392,
        "meta_mean_anomaly": 303.3939,
        "meta_ephemeris_type": 0,
        "meta_classification_type": "U",
        "meta_norad_cat_id": 43719,
        "meta_element_set_no": 999,
        "meta_rev_at_epoch": 38010,
        "meta_bstar": 0.00029848139,
        "meta_mean_motion_dot": 2.135e-05,
        "meta_mean_motion_ddot": 0,
        "tle_line1": "1 43719U 18096A   25348.33555916  .00002135  00000+0  29848-3 0  9991",
        "tle_line2": "2 43719  98.0097  51.3052 0001258  56.7392 303.3939 14.78653219380101"
      },
      "geometry": {
        "type": "Point",
        "coordinates": [
          96.8274770030565,
          -78.73765540948752
        ]
      }
    },
    {
      "type": "Feature",
      "properties": {
        "norad_id": 43783,
        "name": "KAZSTSAT",
        "group": "resource",
        "lat": -47.5769305314603,
        "lon": 32.194789281779926,
        "alt_km": 571.7081753093817,
        "timestamp": "2025-12-14T20:40:31.425555+00:00",
        "meta_object_name": "KAZSTSAT",
        "meta_object_id": "2018-099AB",
        "meta_epoch": "2025-12-14T08:04:33.200832",
        "meta_mean_motion": 14.99358325,
        "meta_eccentricity": 0.00058768,
        "meta_inclination": 97.4558,
        "meta_ra_of_asc_node": 23.4534,
        "meta_arg_of_pericenter": 323.3537,
        "meta_mean_anomaly": 36.7285,
        "meta_ephemeris_type": 0,
        "meta_classification_type": "U",
        "meta_norad_cat_id": 43783,
        "meta_element_set_no": 999,
        "meta_rev_at_epoch": 38360,
        "meta_bstar": 0.00011973585,
        "meta_mean_motion_dot": 1.408e-05,
        "meta_mean_motion_ddot": 0,
        "tle_line1": "1 43783U 18099AB  25348.33649538  .00001408  00000+0  11974-3 0  9992",
        "tle_line2": "2 43783  97.4558  23.4534 0005876 323.3537  36.7285 14.99358325383608"
      },
      "geometry": {
        "type": "Point",
        "coordinates": [
          32.194789281779926,
          -47.5769305314603
        ]
      }
    },
    {
      "type": "Feature",
      "properties": {
        "norad_id": 43831,
        "name": "SAUDISAT 5A",
        "group": "resource",
        "lat": -25.392215628812526,
        "lon": -134.4941038427663,
        "alt_km": 500.2035062970426,
        "timestamp": "2025-12-14T20:40:31.425565+00:00",
        "meta_object_name": "SAUDISAT 5A",
        "meta_object_id": "2018-102A",
        "meta_epoch": "2025-12-14T08:45:35.474688",
        "meta_mean_motion": 15.25684664,
        "meta_eccentricity": 0.00117064,
        "meta_inclination": 97.3356,
        "meta_ra_of_asc_node": 48.5247,
        "meta_arg_of_pericenter": 71.307,
        "meta_mean_anomaly": 288.9438,
        "meta_ephemeris_type": 0,
        "meta_classification_type": "U",
        "meta_norad_cat_id": 43831,
        "meta_element_set_no": 999,
        "meta_rev_at_epoch": 38747,
        "meta_bstar": 0.00027576853,
        "meta_mean_motion_dot": 6.966e-05,
        "meta_mean_motion_ddot": 0,
        "tle_line1": "1 43831U 18102A   25348.36499392  .00006966  00000+0  27577-3 0  9995",
        "tle_line2": "2 43831  97.3356  48.5247 0011706  71.3070 288.9438 15.25684664387475"
      },
      "geometry": {
        "type": "Point",
        "coordinates": [
          -134.4941038427663,
          -25.392215628812526
        ]
      }
    },
    {
      "type": "Feature",
      "properties": {
        "norad_id": 43833,
        "name": "SAUDISAT 5B",
        "group": "resource",
        "lat": -77.87701336234768,
        "lon": -165.1535618264325,
        "alt_km": 503.4577731207364,
        "timestamp": "2025-12-14T20:40:31.425575+00:00",
        "meta_object_name": "SAUDISAT 5B",
        "meta_object_id": "2018-102C",
        "meta_epoch": "2025-12-14T08:31:21.133344",
        "meta_mean_motion": 15.26035398,
        "meta_eccentricity": 0.00124332,
        "meta_inclination": 97.3451,
        "meta_ra_of_asc_node": 51.2564,
        "meta_arg_of_pericenter": 73.5254,
        "meta_mean_anomaly": 286.735,
        "meta_ephemeris_type": 0,
        "meta_classification_type": "U",
        "meta_norad_cat_id": 43833,
        "meta_element_set_no": 999,
        "meta_rev_at_epoch": 38758,
        "meta_bstar": 0.00025579572,
        "meta_mean_motion_dot": 6.526e-05,
        "meta_mean_motion_ddot": 0,
        "tle_line1": "1 43833U 18102C   25348.35510571  .00006526  00000+0  25580-3 0  9993",
        "tle_line2": "2 43833  97.3451  51.2564 0012433  73.5254 286.7350 15.26035398387588"
      },
      "geometry": {
        "type": "Point",
        "coordinates": [
          -165.1535618264325,
          -77.87701336234768
        ]
      }
    },
    {
      "type": "Feature",
      "properties": {
        "norad_id": 44622,
        "name": "GAOFEN-10R",
        "group": "resource",
        "lat": -53.26570076273446,
        "lon": 105.47567189616669,
        "alt_km": 632.6539747669985,
        "timestamp": "2025-12-14T20:40:31.425585+00:00",
        "meta_object_name": "GAOFEN-10R",
        "meta_object_id": "2019-066A",
        "meta_epoch": "2025-12-14T08:17:12.311232",
        "meta_mean_motion": 14.82800543,
        "meta_eccentricity": 0.00077634,
        "meta_inclination": 98.0276,
        "meta_ra_of_asc_node": 295.8578,
        "meta_arg_of_pericenter": 37.4184,
        "meta_mean_anomaly": 322.7569,
        "meta_ephemeris_type": 0,
        "meta_classification_type": "U",
        "meta_norad_cat_id": 44622,
        "meta_element_set_no": 999,
        "meta_rev_at_epoch": 33498,
        "meta_bstar": 0.00028940848,
        "meta_mean_motion_dot": 2.287e-05,
        "meta_mean_motion_ddot": 0,
        "tle_line1": "1 44622U 19066A   25348.34528138  .00002287  00000+0  28941-3 0  9991",
        "tle_line2": "2 44622  98.0276 295.8578 0007763  37.4184 322.7569 14.82800543334982"
      },
      "geometry": {
        "type": "Point",
        "coordinates": [
          105.47567189616669,
          -53.26570076273446
        ]
      }
    },
    {
      "type": "Feature",
      "properties": {
        "norad_id": 44804,
        "name": "CARTOSAT-3",
        "group": "resource",
        "lat": -45.1155472709224,
        "lon": 55.976472579914606,
        "alt_km": 520.2479135477497,
        "timestamp": "2025-12-14T20:40:31.425595+00:00",
        "meta_object_name": "CARTOSAT-3",
        "meta_object_id": "2019-081A",
        "meta_epoch": "2025-12-14T08:13:45.713280",
        "meta_mean_motion": 15.19169202,
        "meta_eccentricity": 0.00141637,
        "meta_inclination": 97.4585,
        "meta_ra_of_asc_node": 47.9061,
        "meta_arg_of_pericenter": 78.0352,
        "meta_mean_anomaly": 282.247,
        "meta_ephemeris_type": 0,
        "meta_classification_type": "U",
        "meta_norad_cat_id": 44804,
        "meta_element_set_no": 999,
        "meta_rev_at_epoch": 33540,
        "meta_bstar": 0.00019038504,
        "meta_mean_motion_dot": 3.944e-05,
        "meta_mean_motion_ddot": 0,
        "tle_line1": "1 44804U 19081A   25348.34289020  .00003944  00000+0  19039-3 0  9993",
        "tle_line2": "2 44804  97.4585  47.9061 0014163  78.0352 282.2470 15.19169202335403"
      },
      "geometry": {
        "type": "Point",
        "coordinates": [
          55.976472579914606,
          -45.1155472709224
        ]
      }
    },
    {
      "type": "Feature",
      "properties": {
        "norad_id": 44819,
        "name": "GAOFEN-12 01",
        "group": "resource",
        "lat": 54.53641112093581,
        "lon": -173.80010435893672,
        "alt_km": 622.219398810772,
        "timestamp": "2025-12-14T20:40:31.425606+00:00",
        "meta_object_name": "GAOFEN-12 01",
        "meta_object_id": "2019-082A",
        "meta_epoch": "2025-12-14T07:08:21.039072",
        "meta_mean_motion": 14.80659587,
        "meta_eccentricity": 0.00014002,
        "meta_inclination": 97.8126,
        "meta_ra_of_asc_node": 354.5376,
        "meta_arg_of_pericenter": 224.0642,
        "meta_mean_anomaly": 136.0459,
        "meta_ephemeris_type": 0,
        "meta_classification_type": "U",
        "meta_norad_cat_id": 44819,
        "meta_element_set_no": 999,
        "meta_rev_at_epoch": 32673,
        "meta_bstar": 9.9228736e-05,
        "meta_mean_motion_dot": 7.12e-06,
        "meta_mean_motion_ddot": 0,
        "tle_line1": "1 44819U 19082A   25348.29746573  .00000712  00000+0  99229-4 0  9995",
        "tle_line2": "2 44819  97.8126 354.5376 0001400 224.0642 136.0459 14.80659587326731"
      },
      "geometry": {
        "type": "Point",
        "coordinates": [
          -173.80010435893672,
          54.53641112093581
        ]
      }
    }
  ]
}